IRIDIUM 63              
1 25286U 98021B   25210.87800849  .00000314  00000+0  10011-3 0  9990
2 25286  86.3940  64.2145 0002246  91.5116 268.6338 14.36569994430249
IRIDIUM 69              
1 25319U 98026A   25210.34297692  .00000440  00000+0  13082-3 0  9991
2 25319  86.3937  77.6040 0000870 178.4409 181.6794 14.41000175429138
IRIDIUM 71              
1 25320U 98026B   25210.55262215  .00000366  00000+0  10741-3 0  9995
2 25320  86.3934  72.1976 0001426  18.3168 341.8082 14.41185215429697
IRIDIUM 73              
1 25344U 98032C   25210.59014171  .00000546  00000+0  13084-3 0  9991
2 25344  86.4403  28.7978 0001988 107.2801 252.8623 14.51751287436711
IRIDIUM 82              
1 25467U 98051A   25210.39084984  .00026623  00000+0  72215-3 0  9990
2 25467  86.3632  88.9595 0084295 134.6606 226.1557 15.33864801430422
